IRIDIUM 33 DEB          
1 34487U 97051GC  26087.39528560  .00000617  00000+0  17577-3 0  9992
2 34487  86.3447 326.9124 0032168 138.0659  39.8069 14.43403487897725
IRIDIUM 33 DEB          
1 34492U 97051GH  26088.02704500  .00007379  00000+0  24868-2 0  9991
2 34492  86.4693 291.5872 0181004 256.3405 260.3004 14.28071418865744
IRIDIUM 33 DEB          
1 34497U 97051GN  26087.22302490  .00002078  00000+0  80484-3 0  9997
2 34497  86.2831   7.3279 0080189   0.0866 152.3883 14.27864199883887
IRIDIUM 33 DEB          
1 34508U 97051GZ  26087.94131005  .00003228  00000+0  10109-2 0  9995
2 34508  86.3686  57.5537 0063266 182.4334 177.6567 14.39250670888368
IRIDIUM 33 DEB          
1 34521U 97051HN  26088.19645388  .00008173  00000+0  15236-2 0  9992
2 34521  86.3824 343.6377 0001114 300.7808  59.3295 14.64932715900301
IRIDIUM 33 DEB          
1 34525U 97051HS  26088.21688951  .00001428  00000+0  41896-3 0  9990
2 34525  86.3781   1.3939 0006644  93.2239  58.6807 14.43224898896234
IRIDIUM 33 DEB          
1 34529U 97051HW  26088.17528954  .00000754  00000+0  22980-3 0  9999
2 34529  86.3688 350.0535 0003977 187.0039 173.1106 14.40764670896741
IRIDIUM 33 DEB          
1 34538U 97051JF  26088.13259582  .00002318  00000+0  67695-3 0  9993
2 34538  86.2765 318.9511 0033982 336.6797 178.8901 14.43373843892905
IRIDIUM 33 DEB          
1 34540U 97051JH  26087.44217611  .00012609  00000+0  17472-2 0  9997
2 34540  86.3053 259.1654 0016903 157.5511 232.2297 14.77803246905811
IRIDIUM 33 DEB          
1 34648U 97051JZ  26087.36578599  .00006397  00000+0  29301-2 0  9993
2 34648  86.3915 239.2222 0173232 324.2874  34.6820 14.13641809864524
IRIDIUM 33 DEB          
1 34651U 97051KC  26086.03858850  .00005759  00000+0  21283-2 0  9993
2 34651  86.2772  96.1096 0132521 226.9880 132.0149 14.27506024873833
IRIDIUM 33 DEB          
1 34652U 97051KD  26087.33815723  .00003674  00000+0  70792-3 0  9994
2 34652  86.3271 292.9522 0025848 297.8320 241.3516 14.63104095900271
IRIDIUM 33 DEB          
1 34690U 97051KM  26088.00016052  .00001971  00000+0  44740-3 0  9991
2 34690  86.3817 350.8046 0011355  27.2230 350.1881 14.55539872896406
IRIDIUM 33 DEB          
1 34696U 97051KT  26088.15069667  .00031399  00000+0  46799-2 0  9995
2 34696  86.1817 337.6760 0058222 158.6009 353.1068 14.73553420882357
IRIDIUM 33 DEB          
1 34765U 97051LJ  26088.20063330  .00001400  00000+0  43094-3 0  9995
2 34765  86.3435 347.0866 0014455 223.3752 292.1084 14.40805060891465
IRIDIUM 33 DEB          
1 34833U 97051MH  26088.02268667  .00003474  00000+0  83168-3 0  9990
2 34833  86.3985   5.1655 0021756  97.8224 277.5445 14.53172855892584
