[{"OBJECT_NAME":"IRIDIUM 33 DEB","OBJECT_ID":"1997-051GC","EPOCH":"2026-03-28T09:29:12.675840","MEAN_MOTION":14.43403487,"ECCENTRICITY":0.00321687,"INCLINATION":86.3447,"RA_OF_ASC_NODE":326.9124,"ARG_OF_PERICENTER":138.0659,"MEAN_ANOMALY":39.8069,"EPHEMERIS_TYPE":0,"CLASSIFICATION_TYPE":"U","NORAD_CAT_ID":34487,"ELEMENT_SET_NO":999,"REV_AT_EPOCH":89772,"BSTAR":0.00017577307,"MEAN_MOTION_DOT":6.17e-6,"MEAN_MOTION_DDOT":0},{"OBJECT_NAME":"IRIDIUM 33 DEB","OBJECT_ID":"1997-051GH","EPOCH":"2026-03-29T00:38:56.688000","MEAN_MOTION":14.28071418,"ECCENTRICITY":0.0181004,"INCLINATION":86.4693,"RA_OF_ASC_NODE":291.5872,"ARG_OF_PERICENTER":256.3405,"MEAN_ANOMALY":260.3004,"EPHEMERIS_TYPE":0,"CLASSIFICATION_TYPE":"U","NORAD_CAT_ID":34492,"ELEMENT_SET_NO":999,"REV_AT_EPOCH":86574,"BSTAR":0.0024868,"MEAN_MOTION_DOT":7.379e-5,"MEAN_MOTION_DDOT":0},{"OBJECT_NAME":"IRIDIUM 33 DEB","OBJECT_ID":"1997-051GN","EPOCH":"2026-03-28T05:21:09.351360","MEAN_MOTION":14.27864199,"ECCENTRICITY":0.00801895,"INCLINATION":86.2831,"RA_OF_ASC_NODE":7.3279,"ARG_OF_PERICENTER":0.0866,"MEAN_ANOMALY":152.3883,"EPHEMERIS_TYPE":0,"CLASSIFICATION_TYPE":"U","NORAD_CAT_ID":34497,"ELEMENT_SET_NO":999,"REV_AT_EPOCH":88388,"BSTAR":0.00080483762,"MEAN_MOTION_DOT":2.078e-5,"MEAN_MOTION_DDOT":0},{"OBJECT_NAME":"IRIDIUM 33 DEB","OBJECT_ID":"1997-051GZ","EPOCH":"2026-03-28T22:35:29.188320","MEAN_MOTION":14.3925067,"ECCENTRICITY":0.0063266,"INCLINATION":86.3686,"RA_OF_ASC_NODE":57.5537,"ARG_OF_PERICENTER":182.4334,"MEAN_ANOMALY":177.6567,"EPHEMERIS_TYPE":0,"CLASSIFICATION_TYPE":"U","NORAD_CAT_ID":34508,"ELEMENT_SET_NO":999,"REV_AT_EPOCH":88836,"BSTAR":0.0010109,"MEAN_MOTION_DOT":3.228e-5,"MEAN_MOTION_DDOT":0},{"OBJECT_NAME":"IRIDIUM 33 DEB","OBJECT_ID":"1997-051HN","EPOCH":"2026-03-29T04:42:53.615232","MEAN_MOTION":14.64932715,"ECCENTRICITY":0.0001114,"INCLINATION":86.3824,"RA_OF_ASC_NODE":343.6377,"ARG_OF_PERICENTER":300.7808,"MEAN_ANOMALY":59.3295,"EPHEMERIS_TYPE":0,"CLASSIFICATION_TYPE":"U","NORAD_CAT_ID":34521,"ELEMENT_SET_NO":999,"REV_AT_EPOCH":90030,"BSTAR":0.0015236,"MEAN_MOTION_DOT":8.173e-5,"MEAN_MOTION_DDOT":0},{"OBJECT_NAME":"IRIDIUM 33 DEB","OBJECT_ID":"1997-051HS","EPOCH":"2026-03-29T05:12:19.253664","MEAN_MOTION":14.43224898,"ECCENTRICITY":0.0006644,"INCLINATION":86.3781,"RA_OF_ASC_NODE":1.3939,"ARG_OF_PERICENTER":93.2239,"MEAN_ANOMALY":58.6807,"EPHEMERIS_TYPE":0,"CLASSIFICATION_TYPE":"U","NORAD_CAT_ID":34525,"ELEMENT_SET_NO":999,"REV_AT_EPOCH":89623,"BSTAR":0.00041896,"MEAN_MOTION_DOT":1.428e-5,"MEAN_MOTION_DDOT":0},{"OBJECT_NAME":"IRIDIUM 33 DEB","OBJECT_ID":"1997-051HW","EPOCH":"2026-03-29T04:12:25.016256","MEAN_MOTION":14.4076467,"ECCENTRICITY":0.0003977,"INCLINATION":86.3688,"RA_OF_ASC_NODE":350.0535,"ARG_OF_PERICENTER":187.0039,"MEAN_ANOMALY":173.1106,"EPHEMERIS_TYPE":0,"CLASSIFICATION_TYPE":"U","NORAD_CAT_ID":34529,"ELEMENT_SET_NO":999,"REV_AT_EPOCH":89674,"BSTAR":0.0002298,"MEAN_MOTION_DOT":7.54e-6,"MEAN_MOTION_DDOT":0},{"OBJECT_NAME":"IRIDIUM 33 DEB","OBJECT_ID":"1997-051JF","EPOCH":"2026-03-29T03:10:56.278848","MEAN_MOTION":14.43373843,"ECCENTRICITY":0.0033982,"INCLINATION":86.2765,"RA_OF_ASC_NODE":318.9511,"ARG_OF_PERICENTER":336.6797,"MEAN_ANOMALY":178.8901,"EPHEMERIS_TYPE":0,"CLASSIFICATION_TYPE":"U","NORAD_CAT_ID":34538,"ELEMENT_SET_NO":999,"REV_AT_EPOCH":89290,"BSTAR":0.00067695,"MEAN_MOTION_DOT":2.318e-5,"MEAN_MOTION_DDOT":0},{"OBJECT_NAME":"IRIDIUM 33 DEB","OBJECT_ID":"1997-051JH","EPOCH":"2026-03-28T10:36:44.015904","MEAN_MOTION":14.77803246,"ECCENTRICITY":0.0016903,"INCLINATION":86.3053,"RA_OF_ASC_NODE":259.1654,"ARG_OF_PERICENTER":157.5511,"MEAN_ANOMALY":232.2297,"EPHEMERIS_TYPE":0,"CLASSIFICATION_TYPE":"U","NORAD_CAT_ID":34540,"ELEMENT_SET_NO":999,"REV_AT_EPOCH":90581,"BSTAR":0.0017472483,"MEAN_MOTION_DOT":0.00012609,"MEAN_MOTION_DDOT":0},{"OBJECT_NAME":"IRIDIUM 33 DEB","OBJECT_ID":"1997-051JZ","EPOCH":"2026-03-28T08:46:43.909536","MEAN_MOTION":14.13641809,"ECCENTRICITY":0.01732322,"INCLINATION":86.3915,"RA_OF_ASC_NODE":239.2222,"ARG_OF_PERICENTER":324.2874,"MEAN_ANOMALY":34.682,"EPHEMERIS_TYPE":0,"CLASSIFICATION_TYPE":"U","NORAD_CAT_ID":34648,"ELEMENT_SET_NO":999,"REV_AT_EPOCH":86452,"BSTAR":0.002930093,"MEAN_MOTION_DOT":6.397e-5,"MEAN_MOTION_DDOT":0},{"OBJECT_NAME":"IRIDIUM 33 DEB","OBJECT_ID":"1997-051KC","EPOCH":"2026-03-27T00:55:34.046400","MEAN_MOTION":14.27506024,"ECCENTRICITY":0.01325212,"INCLINATION":86.2772,"RA_OF_ASC_NODE":96.1096,"ARG_OF_PERICENTER":226.988,"MEAN_ANOMALY":132.0149,"EPHEMERIS_TYPE":0,"CLASSIFICATION_TYPE":"U","NORAD_CAT_ID":34651,"ELEMENT_SET_NO":999,"REV_AT_EPOCH":87383,"BSTAR":0.0021283235,"MEAN_MOTION_DOT":5.759e-5,"MEAN_MOTION_DDOT":0},{"OBJECT_NAME":"IRIDIUM 33 DEB","OBJECT_ID":"1997-051KD","EPOCH":"2026-03-28T08:06:56.784672","MEAN_MOTION":14.63104095,"ECCENTRICITY":0.00258481,"INCLINATION":86.3271,"RA_OF_ASC_NODE":292.9522,"ARG_OF_PERICENTER":297.832,"MEAN_ANOMALY":241.3516,"EPHEMERIS_TYPE":0,"CLASSIFICATION_TYPE":"U","NORAD_CAT_ID":34652,"ELEMENT_SET_NO":999,"REV_AT_EPOCH":90027,"BSTAR":0.00070792179,"MEAN_MOTION_DOT":3.674e-5,"MEAN_MOTION_DDOT":0},{"OBJECT_NAME":"IRIDIUM 33 DEB","OBJECT_ID":"1997-051KM","EPOCH":"2026-03-29T00:00:13.868928","MEAN_MOTION":14.55539872,"ECCENTRICITY":0.0011355,"INCLINATION":86.3817,"RA_OF_ASC_NODE":350.8046,"ARG_OF_PERICENTER":27.223,"MEAN_ANOMALY":350.1881,"EPHEMERIS_TYPE":0,"CLASSIFICATION_TYPE":"U","NORAD_CAT_ID":34690,"ELEMENT_SET_NO":999,"REV_AT_EPOCH":89640,"BSTAR":0.0004474,"MEAN_MOTION_DOT":1.971e-5,"MEAN_MOTION_DDOT":0},{"OBJECT_NAME":"IRIDIUM 33 DEB","OBJECT_ID":"1997-051KT","EPOCH":"2026-03-29T03:37:00.192288","MEAN_MOTION":14.7355342,"ECCENTRICITY":0.0058222,"INCLINATION":86.1817,"RA_OF_ASC_NODE":337.676,"ARG_OF_PERICENTER":158.6009,"MEAN_ANOMALY":353.1068,"EPHEMERIS_TYPE":0,"CLASSIFICATION_TYPE":"U","NORAD_CAT_ID":34696,"ELEMENT_SET_NO":999,"REV_AT_EPOCH":88235,"BSTAR":0.0046799,"MEAN_MOTION_DOT":0.00031399,"MEAN_MOTION_DDOT":0},{"OBJECT_NAME":"IRIDIUM 33 DEB","OBJECT_ID":"1997-051LJ","EPOCH":"2026-03-29T04:48:54.717120","MEAN_MOTION":14.4080506,"ECCENTRICITY":0.0014455,"INCLINATION":86.3435,"RA_OF_ASC_NODE":347.0866,"ARG_OF_PERICENTER":223.3752,"MEAN_ANOMALY":292.1084,"EPHEMERIS_TYPE":0,"CLASSIFICATION_TYPE":"U","NORAD_CAT_ID":34765,"ELEMENT_SET_NO":999,"REV_AT_EPOCH":89146,"BSTAR":0.00043094,"MEAN_MOTION_DOT":1.4e-5,"MEAN_MOTION_DDOT":0},{"OBJECT_NAME":"IRIDIUM 33 DEB","OBJECT_ID":"1997-051MH","EPOCH":"2026-03-29T00:32:40.128288","MEAN_MOTION":14.53172855,"ECCENTRICITY":0.0021756,"INCLINATION":86.3985,"RA_OF_ASC_NODE":5.1655,"ARG_OF_PERICENTER":97.8224,"MEAN_ANOMALY":277.5445,"EPHEMERIS_TYPE":0,"CLASSIFICATION_TYPE":"U","NORAD_CAT_ID":34833,"ELEMENT_SET_NO":999,"REV_AT_EPOCH":89258,"BSTAR":0.00083168,"MEAN_MOTION_DOT":3.474e-5,"MEAN_MOTION_DDOT":0}]
